FENGYUN 1C DEB          
1 31009U 99025BDB 17345.63131081 -.00000037  00000-0  49322-5 0  9997
2 31009  99.0441  14.1613 0063629  34.5161  89.0758 13.98386728549903
